{"type": "FeatureCollection", "features": [ {"type": "Feature", "properties": {"norad_id": 29906, "name": "FENGYUN 1C DEB", "group": "fengyun-1c-debris", "lat": -38.22628617947472, "lon": -104.58996382322995, "alt_km": 715.8377617723681, "timestamp": "2025-12-05T05:43:15.381616+00:00", "meta": {"OBJECT_NAME": "FENGYUN 1C DEB", "OBJECT_ID": "1999-025HC", "EPOCH": "2025-12-04T05:31:17.120064", "MEAN_MOTION": 14.49375212, "ECCENTRICITY": 0.0037545, "INCLINATION": 98.7066, "RA_OF_ASC_NODE": 81.3022, "ARG_OF_PERICENTER": 174.2073, "MEAN_ANOMALY": 185.9561, "EPHEMERIS_TYPE": 0, "CLASSIFICATION_TYPE": "U", "NORAD_CAT_ID": 29906, "ELEMENT_SET_NO": 999, "REV_AT_EPOCH": 98034, "BSTAR": 0.0067967, "MEAN_MOTION_DOT": 0.00026262, "MEAN_MOTION_DDOT": 0}, "tle": {"line1": "1 29906U 99025HC  25338.23005926  .00026262  00000+0  67967-2 0  9993", "line2": "2 29906  98.7066  81.3022 0037545 174.2073 185.9561 14.49375212980345"}}, "geometry": {"type": "Point", "coordinates": [-104.58996382322995, -38.22628617947472]}}, {"type": "Feature", "properties": {"norad_id": 29907, "name": "FENGYUN 1C DEB", "group": "fengyun-1c-debris", "lat": -51.82596968484649, "lon": 57.57775116797858, "alt_km": 812.4404092874856, "timestamp": "2025-12-05T05:43:15.381626+00:00", "meta": {"OBJECT_NAME": "FENGYUN 1C DEB", "OBJECT_ID": "1999-025HD", "EPOCH": "2025-12-04T17:06:48.353760", "MEAN_MOTION": 14.11564741, "ECCENTRICITY": 0.0083331, "INCLINATION": 99.1126, "RA_OF_ASC_NODE": 45.2647, "ARG_OF_PERICENTER": 272.0016, "MEAN_ANOMALY": 246.7591, "EPHEMERIS_TYPE": 0, "CLASSIFICATION_TYPE": "U", "NORAD_CAT_ID": 29907, "ELEMENT_SET_NO": 999, "REV_AT_EPOCH": 96485, "BSTAR": 0.0032214, "MEAN_MOTION_DOT": 6.001e-05, "MEAN_MOTION_DDOT": 0}, "tle": {"line1": "1 29907U 99025HD  25338.71305965  .00006001  00000+0  32214-2 0  9999", "line2": "2 29907  99.1126  45.2647 0083331 272.0016 246.7591 14.11564741964851"}}, "geometry": {"type": "Point", "coordinates": [57.57775116797858, -51.82596968484649]}}, {"type": "Feature", "properties": {"norad_id": 29909, "name": "FENGYUN 1C DEB", "group": "fengyun-1c-debris", "lat": 32.88889474309942, "lon": -91.5671126110375, "alt_km": 715.6356180141847, "timestamp": "2025-12-05T05:43:15.381637+00:00", "meta": {"OBJECT_NAME": "FENGYUN 1C DEB", "OBJECT_ID": "1999-025HF", "EPOCH": "2025-12-04T06:11:27.712896", "MEAN_MOTION": 14.5488457, "ECCENTRICITY": 0.0038561, "INCLINATION": 98.6356, "RA_OF_ASC_NODE": 81.7808, "ARG_OF_PERICENTER": 42.2288, "MEAN_ANOMALY": 11.8577, "EPHEMERIS_TYPE": 0, "CLASSIFICATION_TYPE": "U", "NORAD_CAT_ID": 29909, "ELEMENT_SET_NO": 999, "REV_AT_EPOCH": 98282, "BSTAR": 0.0054748, "MEAN_MOTION_DOT": 0.00023783, "MEAN_MOTION_DDOT": 0}, "tle": {"line1": "1 29909U 99025HF  25338.25795964  .00023783  00000+0  54748-2 0  9994", "line2": "2 29909  98.6356  81.7808 0038561  42.2288  11.8577 14.54884570982823"}}, "geometry": {"type": "Point", "coordinates": [-91.5671126110375, 32.88889474309942]}}, {"type": "Feature", "properties": {"norad_id": 29911, "name": "FENGYUN 1C DEB", "group": "fengyun-1c-debris", "lat": -7.6192713655261635, "lon": -158.6972512422926, "alt_km": 814.3054207339819, "timestamp": "2025-12-05T05:43:15.381647+00:00", "meta": {"OBJECT_NAME": "FENGYUN 1C DEB", "OBJECT_ID": "1999-025HH", "EPOCH": "2025-12-04T08:49:48.079776", "MEAN_MOTION": 14.18816949, "ECCENTRICITY": 0.0027244, "INCLINATION": 98.7165, "RA_OF_ASC_NODE": 21.6231, "ARG_OF_PERICENTER": 174.1326, "MEAN_ANOMALY": 249.809, "EPHEMERIS_TYPE": 0, "CLASSIFICATION_TYPE": "U", "NORAD_CAT_ID": 29911, "ELEMENT_SET_NO": 999, "REV_AT_EPOCH": 97312, "BSTAR": 0.0012768, "MEAN_MOTION_DOT": 2.622e-05, "MEAN_MOTION_DDOT": 0}, "tle": {"line1": "1 29911U 99025HH  25338.36791759  .00002622  00000+0  12768-2 0  9992", "line2": "2 29911  98.7165  21.6231 0027244 174.1326 249.8090 14.18816949973123"}}, "geometry": {"type": "Point", "coordinates": [-158.6972512422926, -7.6192713655261635]}}, {"type": "Feature", "properties": {"norad_id": 29912, "name": "FENGYUN 1C DEB", "group": "fengyun-1c-debris", "lat": -35.79858231040983, "lon": -109.87263123481203, "alt_km": 727.8309760503607, "timestamp": "2025-12-05T05:43:15.381658+00:00", "meta": {"OBJECT_NAME": "FENGYUN 1C DEB", "OBJECT_ID": "1999-025HJ", "EPOCH": "2025-12-04T05:40:03.532800", "MEAN_MOTION": 14.42778616, "ECCENTRICITY": 0.0042521, "INCLINATION": 98.7398, "RA_OF_ASC_NODE": 75.4699, "ARG_OF_PERICENTER": 243.458, "MEAN_ANOMALY": 170.3151, "EPHEMERIS_TYPE": 0, "CLASSIFICATION_TYPE": "U", "NORAD_CAT_ID": 29912, "ELEMENT_SET_NO": 999, "REV_AT_EPOCH": 97916, "BSTAR": 0.0056052, "MEAN_MOTION_DOT": 0.00018892, "MEAN_MOTION_DDOT": 0}, "tle": {"line1": "1 29912U 99025HJ  25338.23615200  .00018892  00000+0  56052-2 0  9995", "line2": "2 29912  98.7398  75.4699 0042521 243.4580 170.3151 14.42778616979165"}}, "geometry": {"type": "Point", "coordinates": [-109.87263123481203, -35.79858231040983]}}, {"type": "Feature", "properties": {"norad_id": 29913, "name": "FENGYUN 1C DEB", "group": "fengyun-1c-debris", "lat": -23.150133969704413, "lon": 154.50411902858102, "alt_km": 873.1445865676533, "timestamp": "2025-12-05T05:43:15.381668+00:00", "meta": {"OBJECT_NAME": "FENGYUN 1C DEB", "OBJECT_ID": "1999-025HK", "EPOCH": "2025-12-04T10:44:55.827168", "MEAN_MOTION": 14.07368175, "ECCENTRICITY": 0.0061995, "INCLINATION": 98.7877, "RA_OF_ASC_NODE": 337.5277, "ARG_OF_PERICENTER": 295.1326, "MEAN_ANOMALY": 226.0215, "EPHEMERIS_TYPE": 0, "CLASSIFICATION_TYPE": "U", "NORAD_CAT_ID": 29913, "ELEMENT_SET_NO": 999, "REV_AT_EPOCH": 96848, "BSTAR": 0.00062552, "MEAN_MOTION_DOT": 1.026e-05, "MEAN_MOTION_DDOT": 0}, "tle": {"line1": "1 29913U 99025HK  25338.44786837  .00001026  00000+0  62552-3 0  9998", "line2": "2 29913  98.7877 337.5277 0061995 295.1326 226.0215 14.07368175968489"}}, "geometry": {"type": "Point", "coordinates": [154.50411902858102, -23.150133969704413]}}, {"type": "Feature", "properties": {"norad_id": 29914, "name": "FENGYUN 1C DEB", "group": "fengyun-1c-debris", "lat": 77.70215026168862, "lon": -126.38472217851721, "alt_km": 854.6627174464011, "timestamp": "2025-12-05T05:43:15.381678+00:00", "meta": {"OBJECT_NAME": "FENGYUN 1C DEB", "OBJECT_ID": "1999-025HL", "EPOCH": "2025-12-04T16:09:51.155136", "MEAN_MOTION": 14.03126874, "ECCENTRICITY": 0.0036286, "INCLINATION": 98.8456, "RA_OF_ASC_NODE": 7.4781, "ARG_OF_PERICENTER": 137.3914, "MEAN_ANOMALY": 349.7198, "EPHEMERIS_TYPE": 0, "CLASSIFICATION_TYPE": "U", "NORAD_CAT_ID": 29914, "ELEMENT_SET_NO": 999, "REV_AT_EPOCH": 96673, "BSTAR": 0.00038887, "MEAN_MOTION_DOT": 5.66e-06, "MEAN_MOTION_DDOT": 0}, "tle": {"line1": "1 29914U 99025HL  25338.67350874  .00000566  00000+0  38887-3 0  9994", "line2": "2 29914  98.8456   7.4781 0036286 137.3914 349.7198 14.03126874966735"}}, "geometry": {"type": "Point", "coordinates": [-126.38472217851721, 77.70215026168862]}}, {"type": "Feature", "properties": {"norad_id": 29916, "name": "FENGYUN 1C DEB", "group": "fengyun-1c-debris", "lat": -78.58967762212606, "lon": 125.59062259525184, "alt_km": 858.8618531081574, "timestamp": "2025-12-05T05:43:15.381688+00:00", "meta": {"OBJECT_NAME": "FENGYUN 1C DEB", "OBJECT_ID": "1999-025HN", "EPOCH": "2025-12-04T07:47:41.062848", "MEAN_MOTION": 13.56968857, "ECCENTRICITY": 0.0271037, "INCLINATION": 99.1953, "RA_OF_ASC_NODE": 358.1125, "ARG_OF_PERICENTER": 280.0767, "MEAN_ANOMALY": 203.2522, "EPHEMERIS_TYPE": 0, "CLASSIFICATION_TYPE": "U", "NORAD_CAT_ID": 29916, "ELEMENT_SET_NO": 999, "REV_AT_EPOCH": 93338, "BSTAR": 0.0011133, "MEAN_MOTION_DOT": 9.61e-06, "MEAN_MOTION_DDOT": 0}, "tle": {"line1": "1 29916U 99025HN  25338.32478082  .00000961  00000+0  11133-2 0  9993", "line2": "2 29916  99.1953 358.1125 0271037 280.0767 203.2522 13.56968857933380"}}, "geometry": {"type": "Point", "coordinates": [125.59062259525184, -78.58967762212606]}}, {"type": "Feature", "properties": {"norad_id": 29917, "name": "FENGYUN 1C DEB", "group": "fengyun-1c-debris", "lat": -8.393841162816763, "lon": -157.23431304721097, "alt_km": 1147.1232654223295, "timestamp": "2025-12-05T05:43:15.381699+00:00", "meta": {"OBJECT_NAME": "FENGYUN 1C DEB", "OBJECT_ID": "1999-025HP", "EPOCH": "2025-12-04T14:08:22.195392", "MEAN_MOTION": 13.70384994, "ECCENTRICITY": 0.022252, "INCLINATION": 98.8765, "RA_OF_ASC_NODE": 200.8446, "ARG_OF_PERICENTER": 146.0101, "MEAN_ANOMALY": 245.6213, "EPHEMERIS_TYPE": 0, "CLASSIFICATION_TYPE": "U", "NORAD_CAT_ID": 29917, "ELEMENT_SET_NO": 999, "REV_AT_EPOCH": 94019, "BSTAR": 0.0015533, "MEAN_MOTION_DOT": 1.597e-05, "MEAN_MOTION_DDOT": 0}, "tle": {"line1": "1 29917U 99025HP  25338.58914578  .00001597  00000+0  15533-2 0  9991", "line2": "2 29917  98.8765 200.8446 0222520 146.0101 245.6213 13.70384994940197"}}, "geometry": {"type": "Point", "coordinates": [-157.23431304721097, -8.393841162816763]}}, {"type": "Feature", "properties": {"norad_id": 29918, "name": "FENGYUN 1C DEB", "group": "fengyun-1c-debris", "lat": -78.43732165704957, "lon": 111.14883043783341, "alt_km": 783.2617106679218, "timestamp": "2025-12-05T05:43:15.381709+00:00", "meta": {"OBJECT_NAME": "FENGYUN 1C DEB", "OBJECT_ID": "1999-025HQ", "EPOCH": "2025-12-04T17:18:30.060000", "MEAN_MOTION": 14.33496361, "ECCENTRICITY": 0.0012678, "INCLINATION": 98.856, "RA_OF_ASC_NODE": 60.9744, "ARG_OF_PERICENTER": 342.2934, "MEAN_ANOMALY": 147.8079, "EPHEMERIS_TYPE": 0, "CLASSIFICATION_TYPE": "U", "NORAD_CAT_ID": 29918, "ELEMENT_SET_NO": 999, "REV_AT_EPOCH": 97679, "BSTAR": 0.0033252, "MEAN_MOTION_DOT": 9.164e-05, "MEAN_MOTION_DDOT": 0}, "tle": {"line1": "1 29918U 99025HQ  25338.72118125  .00009164  00000+0  33252-2 0  9998", "line2": "2 29918  98.8560  60.9744 0012678 342.2934 147.8079 14.33496361976792"}}, "geometry": {"type": "Point", "coordinates": [111.14883043783341, -78.43732165704957]}}]}